SAUDISAT 1C (SO-50)     
1 27607U 02058C   26178.47237572  .00000908  00000+0  12441-3 0  9999
2 27607  64.5520  97.1634 0075023 260.5582  98.7038 14.83067272265986
SAUDISAT 2              
1 28371U 04025F   26178.46970875  .00000243  00000+0  65355-4 0  9998
2 28371  98.5509 178.7174 0023432 264.9912  94.8610 14.56689363167240
SAUDISAT 3              
1 31118U 07012B   26178.39100228  .00000248  00000+0  48287-4 0  9999
2 31118  98.1459 128.7984 0014312 189.8320 170.2609 14.71431078 29241
PISAT                   
1 41784U 16059B   26178.49754209  .00000896  00000+0  15988-3 0  9995
2 41784  97.8180 178.5074 0029246 169.6128 190.5689 14.69000082521250
FLYING LAPTOP           
1 42831U 17042G   26178.51725409  .00002209  00000+0  17589-3 0  9994
2 42831  97.4725 333.6550 0019970  88.7419 271.6093 15.01208876488008
SALSAT                  
1 46495U 20068K   26178.47981012  .00007487  00000+0  26096-3 0  9991
2 46495  97.8847 182.1720 0007835 263.9678  96.0668 15.29940196316931
